PLEIADES NEO 3          
1 48268U 21034A   26198.98042196  .00000825  00000+0  11146-3 0  9993
2 48268  97.8940 273.3041 0001405  95.5246 264.6127 14.81672522282219
PLEIADES NEO 4          
1 49070U 21073E   26198.94664495 -.00000038  00000+0  18390-5 0  9993
2 49070  97.8939 273.2667 0001318  95.0856 265.0507 14.81673015265921
